CCSDS_OEM_VERS = 1.0
CREATION_DATE  = 2017-05-11T11:05:43
ORIGINATOR     = GMAT USER

META_START
OBJECT_NAME          = MOPSSat_alt_35785_km_RAAN_0_128
OBJECT_ID            = SatId
CENTER_NAME          = Earth
REF_FRAME            = EME2000
TIME_SYSTEM          = UTC
START_TIME           = 2017-01-01T00:00:00.000
USEABLE_START_TIME   = 2017-01-01T00:00:00.000
USEABLE_STOP_TIME    = 2017-01-02T00:00:00.000
STOP_TIME            = 2017-01-02T00:00:00.000
INTERPOLATION        = Lagrange
INTERPOLATION_DEGREE = 7 
META_STOP


                                                                                   

2017-01-01T15:25:50.000  -4.453186362189279e+04  -2.630479020801858e+04  -9.166792835193046e+02   1.639815059746550e+00  -1.806614554287312e+00  -6.305530674019146e-02
2017-01-01T15:26:00.000  -4.451545905965647e+04  -2.632285256432185e+04  -9.173097045130202e+02   1.641097419760718e+00  -1.805856638696224e+00  -6.302888964580459e-02
2017-01-01T15:26:10.000  -4.449904167425077e+04  -2.634090733789905e+04  -9.179398612113278e+02   1.642379673188834e+00  -1.805097986454057e+00  -6.300244686914179e-02
2017-01-01T15:26:20.000  -4.448261146669884e+04  -2.635895452142934e+04  -9.185697533589985e+02   1.643661819820392e+00  -1.804338597228330e+00  -6.297597839860310e-02
2017-01-01T15:26:30.000  -4.446616843806285e+04  -2.637699410754832e+04  -9.191993806992833e+02   1.644943859441626e+00  -1.803578470687940e+00  -6.294948422263645e-02
2017-01-01T15:26:40.000  -4.444971258939544e+04  -2.639502608890078e+04  -9.198287429757552e+02   1.646225791839284e+00  -1.802817606500893e+00  -6.292296432965891e-02
2017-01-01T15:26:50.000  -4.443324392195769e+04  -2.641305045790396e+04  -9.204578399240418e+02   1.647507616783742e+00  -1.802056004344414e+00  -6.289641870840866e-02
2017-01-01T15:27:00.000  -4.441676243695510e+04  -2.643106720703455e+04  -9.210866712818506e+02   1.648789334049463e+00  -1.801293663892719e+00  -6.286984734751905e-02
2017-01-01T15:27:10.000  -4.440026813563572e+04  -2.644907632872203e+04  -9.217152367852354e+02   1.650070943407386e+00  -1.800530584821552e+00  -6.284325023567666e-02
2017-01-01T15:27:20.000  -4.438376101891079e+04  -2.646707781576281e+04  -9.223435361830626e+02   1.651352444654411e+00  -1.799766766790643e+00  -6.281662736100981e-02
2017-01-01T15:27:30.000  -4.436724108773305e+04  -2.648507166090698e+04  -9.229715692225784e+02   1.652633837583985e+00  -1.799002209461198e+00  -6.278997871169839e-02
2017-01-01T15:27:40.000  -4.435070834301117e+04  -2.650305785695206e+04  -9.235993356526860e+02   1.653915121992770e+00  -1.798236912491952e+00  -6.276330427583598e-02
2017-01-01T15:27:50.000  -4.433416278582218e+04  -2.652103639650905e+04  -9.242268352157771e+02   1.655196297664033e+00  -1.797470875548975e+00  -6.273660404177192e-02
2017-01-01T15:28:00.000  -4.431760441725426e+04  -2.653900727217636e+04  -9.248540676538062e+02   1.656477364379977e+00  -1.796704098298421e+00  -6.270987799785833e-02
2017-01-01T15:28:10.000  -4.430103323840613e+04  -2.655697047653948e+04  -9.254810327082754e+02   1.657758321921743e+00  -1.795936580406485e+00  -6.268312613244885e-02
2017-01-01T15:28:20.000  -4.428444925054799e+04  -2.657492600199924e+04  -9.261077301142417e+02   1.659039170057096e+00  -1.795168321546881e+00  -6.265634843415906e-02
2017-01-01T15:28:30.000  -4.426785245490535e+04  -2.659287384100344e+04  -9.267341596084023e+02   1.660319908557008e+00  -1.794399321390811e+00  -6.262954489151701e-02
2017-01-01T15:28:40.000  -4.425124285274398e+04  -2.661081398595552e+04  -9.273603209259048e+02   1.661600537189124e+00  -1.793629579610899e+00  -6.260271549310038e-02
2017-01-01T15:28:50.000  -4.423462044499518e+04  -2.662874642961940e+04  -9.279862138144806e+02   1.662881055746661e+00  -1.792859095863834e+00  -6.257586022693125e-02
2017-01-01T15:29:00.000  -4.421798523263042e+04  -2.664667116471453e+04  -9.286118380203078e+02   1.664161464019502e+00  -1.792087869807721e+00  -6.254897908108110e-02
2017-01-01T15:29:10.000  -4.420133721657683e+04  -2.666458818400760e+04  -9.292371932912124e+02   1.665441761800741e+00  -1.791315901098172e+00  -6.252207204353451e-02
2017-01-01T15:29:20.000  -4.418467639793112e+04  -2.668249748007938e+04  -9.298622793685340e+02   1.666721948870075e+00  -1.790543189398202e+00  -6.249513910253406e-02
2017-01-01T15:29:30.000  -4.416800277780123e+04  -2.670039904549811e+04  -9.304870959931727e+02   1.668002025006138e+00  -1.789769734370912e+00  -6.246818024632527e-02
2017-01-01T15:29:40.000  -4.415131635730572e+04  -2.671829287281913e+04  -9.311116429055784e+02   1.669281989986489e+00  -1.788995535679446e+00  -6.244119546315512e-02
2017-01-01T15:29:50.000  -4.413461713773590e+04  -2.673617895441373e+04  -9.317359198397780e+02   1.670561843575321e+00  -1.788220592994535e+00  -6.241418474153511e-02
2017-01-01T15:30:00.000  -4.411790512033799e+04  -2.675405728269999e+04  -9.323599265314322e+02   1.671841585540023e+00  -1.787444905984376e+00  -6.238714806988824e-02
2017-01-01T15:30:10.000  -4.410118030639886e+04  -2.677192785005176e+04  -9.329836627146566e+02   1.673121215644654e+00  -1.786668474318604e+00  -6.236008543668777e-02
2017-01-01T15:30:20.000  -4.408444269686858e+04  -2.678979064920194e+04  -9.336071281360977e+02   1.674400733678813e+00  -1.785891297650781e+00  -6.233299682984653e-02
2017-01-01T15:30:30.000  -4.406769229273773e+04  -2.680764567283904e+04  -9.342303225408567e+02   1.675680139428771e+00  -1.785113375635900e+00  -6.230588223732729e-02
2017-01-01T15:30:40.000  -4.405092909495217e+04  -2.682549291369862e+04  -9.348532456756732e+02   1.676959432683992e+00  -1.784334707926438e+00  -6.227874164700527e-02
2017-01-01T15:30:50.000  -4.403415310462862e+04  -2.684333236433100e+04  -9.354758972808229e+02   1.678238613220554e+00  -1.783555294182348e+00  -6.225157504701586e-02
2017-01-01T15:31:00.000  -4.401736432289510e+04  -2.686116401727397e+04  -9.360982770961438e+02   1.679517680813460e+00  -1.782775134063665e+00  -6.222438242549760e-02
2017-01-01T15:31:10.000  -4.400056275089036e+04  -2.687898786505236e+04  -9.367203848610234e+02   1.680796635236637e+00  -1.781994227230471e+00  -6.219716377059054e-02
2017-01-01T15:31:20.000  -4.398374838992710e+04  -2.689680390000774e+04  -9.373422203084497e+02   1.682075476250648e+00  -1.781212573350504e+00  -6.216991907070153e-02
2017-01-01T15:31:30.000  -4.396692124127263e+04  -2.691461211452820e+04  -9.379637831730365e+02   1.683354203619243e+00  -1.780430172088944e+00  -6.214264831414829e-02
2017-01-01T15:31:40.000  -4.395008130623686e+04  -2.693241250095597e+04  -9.385850731877973e+02   1.684632817102712e+00  -1.779647023112507e+00  -6.211535148930196e-02
2017-01-01T15:31:50.000  -4.393322858578587e+04  -2.695020505199589e+04  -9.392060900984011e+02   1.685911316487226e+00  -1.778863126071468e+00  -6.208802858396070e-02
2017-01-01T15:32:00.000  -4.391636308092908e+04  -2.696798976030583e+04  -9.398268336488765e+02   1.687189701555414e+00  -1.778078480617674e+00  -6.206067958597734e-02
2017-01-01T15:32:10.000  -4.389948479261947e+04  -2.698576661860248e+04  -9.404473035853072e+02   1.688467972093967e+00  -1.777293086399899e+00  -6.203330448309768e-02
2017-01-01T15:32:20.000  -4.388259372202164e+04  -2.700353561937663e+04  -9.410674996458914e+02   1.689746127873206e+00  -1.776506943076302e+00  -6.200590326339458e-02
2017-01-01T15:32:30.000  -4.386568987029087e+04  -2.702129675512824e+04  -9.416874215691475e+02   1.691024168663941e+00  -1.775720050304163e+00  -6.197847591491014e-02
2017-01-01T15:32:40.000  -4.384877323862231e+04  -2.703905001831399e+04  -9.423070690920825e+02   1.692302094233707e+00  -1.774932407742168e+00  -6.195102242573549e-02
2017-01-01T15:32:50.000  -4.383184382823850e+04  -2.705679540136199e+04  -9.429264419507080e+02   1.693579904347791e+00  -1.774144015049834e+00  -6.192354278399080e-02
2017-01-01T15:33:00.000  -4.381490164037170e+04  -2.707453289668903e+04  -9.435455398806383e+02   1.694857598770500e+00  -1.773354871886683e+00  -6.189603697779631e-02
2017-01-01T15:33:10.000  -4.379794667625793e+04  -2.709226249670702e+04  -9.441643626173191e+02   1.696135177265621e+00  -1.772564977911963e+00  -6.186850499526262e-02
2017-01-01T15:33:20.000  -4.378097893707669e+04  -2.710998419388658e+04  -9.447829098982462e+02   1.697412639600991e+00  -1.771774332781845e+00  -6.184094682439312e-02
2017-01-01T15:33:30.000  -4.376399842399100e+04  -2.712769798071463e+04  -9.454011814614804e+02   1.698689985545451e+00  -1.770982936151279e+00  -6.181336245314855e-02
2017-01-01T15:33:40.000  -4.374700513814732e+04  -2.714540384969421e+04  -9.460191770456499e+02   1.699967214868839e+00  -1.770190787673991e+00  -6.178575186944721e-02
2017-01-01T15:33:50.000  -4.372999908063471e+04  -2.716310179338660e+04  -9.466368963914127e+02   1.701244327345035e+00  -1.769397887000583e+00  -6.175811506109806e-02
2017-01-01T15:34:00.000  -4.371298025254591e+04  -2.718079180434806e+04  -9.472543392392530e+02   1.702521322747395e+00  -1.768604233781367e+00  -6.173045201590039e-02
2017-01-01T15:34:10.000  -4.369594865498359e+04  -2.719847387512365e+04  -9.478715053292633e+02   1.703798200848290e+00  -1.767809827666675e+00  -6.170276272165372e-02
2017-01-01T15:34:20.000  -4.367890428907647e+04  -2.721614799822901e+04  -9.484883944005096e+02   1.705074961417825e+00  -1.767014668307588e+00  -6.167504716618398e-02
2017-01-01T15:34:30.000  -4.366184715599402e+04  -2.723381416613688e+04  -9.491050061905603e+02   1.706351604222831e+00  -1.766218755356638e+00  -6.164730533736749e-02
2017-01-01T15:34:40.000  -4.364477725689580e+04  -2.725147237132880e+04  -9.497213404372923e+02   1.707628129030611e+00  -1.765422088465440e+00  -6.161953722304867e-02
2017-01-01T15:34:50.000  -4.362769459315764e+04  -2.726912260606321e+04  -9.503373968707939e+02   1.708904535592132e+00  -1.764624667295266e+00  -6.159174281140833e-02
